[{"OBJECT_NAME":"ONEWEB-0629","OBJECT_ID":"2023-004AG","EPOCH":"2026-06-09T07:00:34.293312","MEAN_MOTION":13.17651023,"ECCENTRICITY":0.0001994,"INCLINATION":87.9135,"RA_OF_ASC_NODE":7.4417,"ARG_OF_PERICENTER":78.3255,"MEAN_ANOMALY":281.81,"EPHEMERIS_TYPE":0,"CLASSIFICATION_TYPE":"U","NORAD_CAT_ID":55170,"ELEMENT_SET_NO":999,"REV_AT_EPOCH":16654,"BSTAR":-3.696e-05,"MEAN_MOTION_DOT":-1e-08,"MEAN_MOTION_DDOT":0.0},{"OBJECT_NAME":"ONEWEB-0631","OBJECT_ID":"2023-004AH","EPOCH":"2026-06-09T05:02:51.623808","MEAN_MOTION":13.18684515,"ECCENTRICITY":0.0002105,"INCLINATION":87.9167,"RA_OF_ASC_NODE":337.0231,"ARG_OF_PERICENTER":104.349,"MEAN_ANOMALY":255.7876,"EPHEMERIS_TYPE":0,"CLASSIFICATION_TYPE":"U","NORAD_CAT_ID":55171,"ELEMENT_SET_NO":999,"REV_AT_EPOCH":16862,"BSTAR":0.00016284,"MEAN_MOTION_DOT":7.7e-07,"MEAN_MOTION_DDOT":0.0},{"OBJECT_NAME":"ONEWEB-0709","OBJECT_ID":"2023-004AJ","EPOCH":"2026-06-09T02:48:17.676864","MEAN_MOTION":13.11417704,"ECCENTRICITY":0.0001443,"INCLINATION":87.8892,"RA_OF_ASC_NODE":22.6862,"ARG_OF_PERICENTER":112.6542,"MEAN_ANOMALY":247.4739,"EPHEMERIS_TYPE":0,"CLASSIFICATION_TYPE":"U","NORAD_CAT_ID":55172,"ELEMENT_SET_NO":999,"REV_AT_EPOCH":16481,"BSTAR":-0.0015440999999999999,"MEAN_MOTION_DOT":-5.35e-06,"MEAN_MOTION_DDOT":0.0},{"OBJECT_NAME":"ONEWEB-0710","OBJECT_ID":"2023-004AK","EPOCH":"2026-06-09T01:53:11.935104","MEAN_MOTION":13.17648687,"ECCENTRICITY":0.0002016,"INCLINATION":87.9136,"RA_OF_ASC_NODE":7.4793,"ARG_OF_PERICENTER":87.8447,"MEAN_ANOMALY":272.2915,"EPHEMERIS_TYPE":0,"CLASSIFICATION_TYPE":"U","NORAD_CAT_ID":55173,"ELEMENT_SET_NO":999,"REV_AT_EPOCH":16651,"BSTAR":7.0331e-05,"MEAN_MOTION_DOT":4e-07,"MEAN_MOTION_DDOT":0.0},{"OBJECT_NAME":"ONEWEB-0711","OBJECT_ID":"2023-004AL","EPOCH":"2026-06-09T02:06:49.275648","MEAN_MOTION":13.11416121,"ECCENTRICITY":0.0002551,"INCLINATION":87.8894,"RA_OF_ASC_NODE":22.6787,"ARG_OF_PERICENTER":86.6644,"MEAN_ANOMALY":273.4776,"EPHEMERIS_TYPE":0,"CLASSIFICATION_TYPE":"U","NORAD_CAT_ID":55174,"ELEMENT_SET_NO":999,"REV_AT_EPOCH":16477,"BSTAR":4.7761e-05,"MEAN_MOTION_DOT":3e-07,"MEAN_MOTION_DDOT":0.0},{"OBJECT_NAME":"ONEWEB-0713","OBJECT_ID":"2023-004AM","EPOCH":"2026-06-09T02:33:39.115872","MEAN_MOTION":13.11416533,"ECCENTRICITY":0.0002212,"INCLINATION":87.8896,"RA_OF_ASC_NODE":22.6768,"ARG_OF_PERICENTER":86.1261,"MEAN_ANOMALY":274.012,"EPHEMERIS_TYPE":0,"CLASSIFICATION_TYPE":"U","NORAD_CAT_ID":55175,"ELEMENT_SET_NO":999,"REV_AT_EPOCH":16476,"BSTAR":-0.001863,"MEAN_MOTION_DOT":-6.48e-06,"MEAN_MOTION_DDOT":0.0},{"OBJECT_NAME":"ONEWEB-0715","OBJECT_ID":"2023-004AN","EPOCH":"2026-06-09T02:26:19.762368","MEAN_MOTION":13.11417192,"ECCENTRICITY":0.0001787,"INCLINATION":87.8894,"RA_OF_ASC_NODE":22.6784,"ARG_OF_PERICENTER":106.7964,"MEAN_ANOMALY":253.3361,"EPHEMERIS_TYPE":0,"CLASSIFICATION_TYPE":"U","NORAD_CAT_ID":55176,"ELEMENT_SET_NO":999,"REV_AT_EPOCH":16480,"BSTAR":-0.001409,"MEAN_MOTION_DOT":-4.87e-06,"MEAN_MOTION_DDOT":0.0},{"OBJECT_NAME":"ONEWEB-0716","OBJECT_ID":"2023-004AP","EPOCH":"2026-06-09T01:43:28.729920","MEAN_MOTION":13.17648975,"ECCENTRICITY":0.0001669,"INCLINATION":87.9139,"RA_OF_ASC_NODE":7.4832,"ARG_OF_PERICENTER":80.6537,"MEAN_ANOMALY":279.4783,"EPHEMERIS_TYPE":0,"CLASSIFICATION_TYPE":"U","NORAD_CAT_ID":55177,"ELEMENT_SET_NO":999,"REV_AT_EPOCH":16651,"BSTAR":3.6619e-05,"MEAN_MOTION_DOT":2.7e-07,"MEAN_MOTION_DDOT":0.0},{"OBJECT_NAME":"ONEWEB-0717","OBJECT_ID":"2023-004AQ","EPOCH":"2026-06-09T06:47:13.151040","MEAN_MOTION":13.17648113,"ECCENTRICITY":0.0002389,"INCLINATION":87.9148,"RA_OF_ASC_NODE":7.428,"ARG_OF_PERICENTER":92.9063,"MEAN_ANOMALY":267.2342,"EPHEMERIS_TYPE":0,"CLASSIFICATION_TYPE":"U","NORAD_CAT_ID":55178,"ELEMENT_SET_NO":999,"REV_AT_EPOCH":16659,"BSTAR":-3.4833e-05,"MEAN_MOTION_DOT":-1e-08,"MEAN_MOTION_DDOT":0.0},{"OBJECT_NAME":"ONEWEB-0719","OBJECT_ID":"2023-004AR","EPOCH":"2026-06-09T07:01:48.581760","MEAN_MOTION":13.17648234,"ECCENTRICITY":0.0001825,"INCLINATION":87.9145,"RA_OF_ASC_NODE":7.4066,"ARG_OF_PERICENTER":80.9028,"MEAN_ANOMALY":279.231,"EPHEMERIS_TYPE":0,"CLASSIFICATION_TYPE":"U","NORAD_CAT_ID":55179,"ELEMENT_SET_NO":999,"REV_AT_EPOCH":16654,"BSTAR":3.7402000000000005e-05,"MEAN_MOTION_DOT":2.7e-07,"MEAN_MOTION_DDOT":0.0},{"OBJECT_NAME":"ONEWEB-0530","OBJECT_ID":"2023-029A","EPOCH":"2026-06-09T06:53:15.452160","MEAN_MOTION":13.20771077,"ECCENTRICITY":0.0002366,"INCLINATION":87.918,"RA_OF_ASC_NODE":276.0442,"ARG_OF_PERICENTER":95.0966,"MEAN_ANOMALY":265.0438,"EPHEMERIS_TYPE":0,"CLASSIFICATION_TYPE":"U","NORAD_CAT_ID":55796,"ELEMENT_SET_NO":999,"REV_AT_EPOCH":16010,"BSTAR":4.0177000000000005e-05,"MEAN_MOTION_DOT":2.9e-07,"MEAN_MOTION_DDOT":0.0},{"OBJECT_NAME":"ONEWEB-0534","OBJECT_ID":"2023-029B","EPOCH":"2026-06-09T06:36:16.836768","MEAN_MOTION":13.20771401,"ECCENTRICITY":0.0001832,"INCLINATION":87.9181,"RA_OF_ASC_NODE":276.0472,"ARG_OF_PERICENTER":99.2833,"MEAN_ANOMALY":260.8507,"EPHEMERIS_TYPE":0,"CLASSIFICATION_TYPE":"U","NORAD_CAT_ID":55797,"ELEMENT_SET_NO":999,"REV_AT_EPOCH":16010,"BSTAR":0.00014207,"MEAN_MOTION_DOT":7.1e-07,"MEAN_MOTION_DDOT":0.0},{"OBJECT_NAME":"ONEWEB-0556","OBJECT_ID":"2023-029C","EPOCH":"2026-06-09T06:45:59.443200","MEAN_MOTION":13.20773058,"ECCENTRICITY":0.0001892,"INCLINATION":87.9179,"RA_OF_ASC_NODE":276.0455,"ARG_OF_PERICENTER":74.6642,"MEAN_ANOMALY":285.47,"EPHEMERIS_TYPE":0,"CLASSIFICATION_TYPE":"U","NORAD_CAT_ID":55798,"ELEMENT_SET_NO":999,"REV_AT_EPOCH":16010,"BSTAR":0.00021946,"MEAN_MOTION_DOT":1.02e-06,"MEAN_MOTION_DDOT":0.0},{"OBJECT_NAME":"ONEWEB-0562","OBJECT_ID":"2023-029D","EPOCH":"2026-06-09T06:26:34.518912","MEAN_MOTION":13.20770398,"ECCENTRICITY":0.00025,"INCLINATION":87.9179,"RA_OF_ASC_NODE":276.0291,"ARG_OF_PERICENTER":83.1682,"MEAN_ANOMALY":276.9736,"EPHEMERIS_TYPE":0,"CLASSIFICATION_TYPE":"U","NORAD_CAT_ID":55799,"ELEMENT_SET_NO":999,"REV_AT_EPOCH":16010,"BSTAR":0.00013361000000000002,"MEAN_MOTION_DOT":6.7e-07,"MEAN_MOTION_DDOT":0.0},{"OBJECT_NAME":"ONEWEB-0563","OBJECT_ID":"2023-029E","EPOCH":"2026-06-09T00:52:03.205344","MEAN_MOTION":13.20771851,"ECCENTRICITY":0.0001707,"INCLINATION":87.9177,"RA_OF_ASC_NODE":276.1059,"ARG_OF_PERICENTER":100.182,"MEAN_ANOMALY":259.9506,"EPHEMERIS_TYPE":0,"CLASSIFICATION_TYPE":"U","NORAD_CAT_ID":55800,"ELEMENT_SET_NO":999,"REV_AT_EPOCH":16006,"BSTAR":0.00011237,"MEAN_MOTION_DOT":5.9e-07,"MEAN_MOTION_DDOT":0.0},{"OBJECT_NAME":"ONEWEB-0564","OBJECT_ID":"2023-029F","EPOCH":"2026-06-08T21:04:10.303392","MEAN_MOTION":13.20770098,"ECCENTRICITY":0.0002237,"INCLINATION":87.918,"RA_OF_ASC_NODE":276.1108,"ARG_OF_PERICENTER":92.5976,"MEAN_ANOMALY":267.5413,"EPHEMERIS_TYPE":0,"CLASSIFICATION_TYPE":"U","NORAD_CAT_ID":55801,"ELEMENT_SET_NO":999,"REV_AT_EPOCH":16005,"BSTAR":1.9298e-05,"MEAN_MOTION_DOT":2.1e-07,"MEAN_MOTION_DDOT":0.0}]